COSMOS 2522 (752)       
1 42939U 17055A   26171.87700781  .00000069  00000+0  00000+0 0  9993
2 42939  64.0794 191.7591 0011202 244.2944 115.6333  2.13101192 68058
COSMOS 2527 (756)       
1 43508U 18053A   26170.90026155 -.00000034  00000+0  00000+0 0  9997
2 43508  65.5791  73.8170 0006906 238.7549 121.2143  2.13102048 62339
COSMOS 2529 (757)       
1 43687U 18086A   26169.11967451  .00000057  00000+0  00000+0 0  9999
2 43687  64.2948 192.5630 0012066 256.5324 103.3830  2.13101950 59308
COSMOS 2534 (758)       
1 44299U 19030A   26172.37658476  .00000074  00000+0  00000+0 0  9994
2 44299  64.3690 192.4752 0013451 275.1251 197.9596  2.13102244 55011
COSMOS 2544 (759)       
1 44850U 19088A   26169.43716075 -.00000023  00000+0  00000+0 0  9998
2 44850  65.5663  73.6893 0013127 258.8621 101.0278  2.13102753 50745
COSMOS 2545 (760)       
1 45358U 20018A   26172.44771125 -.00000070  00000+0  00000+0 0  9991
2 45358  64.3522 312.2691 0008538 229.7287 130.1903  2.13102330 48750
COSMOS 2547 (705K)      
1 46805U 20075A   26171.22947998  .00000062  00000+0  00000+0 0  9990
2 46805  64.5997 192.3739 0009338 239.8081 120.1435  2.13100029 43970
COSMOS 2557 (706K)      
1 52984U 22075A   26171.86302699 -.00000067  00000+0  00000+0 0  9996
2 52984  64.2965 314.3556 0010286 273.9736  85.9018  2.13102004 30796
COSMOS 2559 (707K)      
1 54031U 22130A   26169.33634979 -.00000058  00000+0  00000+0 0  9991
2 54031  64.2705 314.5280 0012585 178.2040 181.7898  2.13101593 28710
COSMOS 2564 (761)       
1 54377U 22161A   26171.05664634  .00000061  00000+0  00000+0 0  9994
2 54377  64.7420 192.6165 0012215 224.8634 135.0824  2.13102033 27693
COSMOS 2569 (703K)      
1 57517U 23114A   26172.00750013 -.00000048  00000+0  00000+0 0  9991
2 57517  65.3042  72.4915 0010518 296.8945  63.0344  2.13103720 22343
COSMOS 2584 (704K)      
1 63130U 25042A   26170.95584270 -.00000037  00000+0  00000+0 0  9991
2 63130  65.0856  72.7078 0005135 219.8892 140.1108  2.13103910 10106
COSMOS 2596 (708K)      
1 65590U 25206B   26169.43366895 -.00000057  00000+0  00000+0 0  9999
2 65590  64.6338 314.9413 0010998 311.7055  76.8578  2.13100598  5949
